[{"OBJECT_NAME":"STARLINK-31924","OBJECT_ID":"2024-100V","EPOCH":"2026-03-09T12:43:01.960320","MEAN_MOTION":15.27576037,"ECCENTRICITY":8.469e-5,"INCLINATION":43.0003,"RA_OF_ASC_NODE":126.195,"ARG_OF_PERICENTER":276.5216,"MEAN_ANOMALY":83.5539,"EPHEMERIS_TYPE":0,"CLASSIFICATION_TYPE":"U","NORAD_CAT_ID":59904,"ELEMENT_SET_NO":999,"REV_AT_EPOCH":10112,"BSTAR":-7.6999212e-5,"MEAN_MOTION_DOT":-2.38e-5,"MEAN_MOTION_DDOT":0},{"OBJECT_NAME":"TEVEL2-1","OBJECT_ID":"2025-052H","EPOCH":"2026-03-09T15:32:51.927072","MEAN_MOTION":15.30341923,"ECCENTRICITY":0.0004767,"INCLINATION":97.3991,"RA_OF_ASC_NODE":324.7682,"ARG_OF_PERICENTER":104.8919,"MEAN_ANOMALY":255.2849,"EPHEMERIS_TYPE":0,"CLASSIFICATION_TYPE":"U","NORAD_CAT_ID":63217,"ELEMENT_SET_NO":999,"REV_AT_EPOCH":5485,"BSTAR":0.000706,"MEAN_MOTION_DOT":0.00020683,"MEAN_MOTION_DDOT":0}]
