STARLINK-31924          
1 59904U 24100V   26068.52988380 -.00002380  00000+0 -76999-4 0  9997
2 59904  43.0003 126.1950 0000846 276.5216  83.5539 15.27576037101121
TEVEL2-1                
1 63217U 25052H   26068.64782323  .00020683  00000+0  70600-3 0  9994
2 63217  97.3991 324.7682 0004767 104.8919 255.2849 15.30341923 54855
